{
  "type": "FeatureCollection",
  "lodLevel": "LoD3",
  "lod3Category": "LoD3 structural shell",
  "lod3Evidence": "Separate basement, floor slabs, walls, and floor volumes are modeled as individual 3D parts.",
  "timestamp": "2026-04-29T17:07:16.090Z",
  "features": [
    {
      "id": "basement-1",
      "type": "Feature",
      "geometry": {
        "type": "Polygon",
        "coordinates": [
          [
            [
              106.69549078419828,
              10.77723131068411,
              15
            ],
            [
              106.69525266991909,
              10.77744192785724,
              15
            ],
            [
              106.69506645030208,
              10.777238757357148,
              15
            ],
            [
              106.69516849917937,
              10.777148492798734,
              15
            ],
            [
              106.69519912759006,
              10.777181909107123,
              15
            ],
            [
              106.69530117644813,
              10.777091644548708,
              15
            ],
            [
              106.69516334871022,
              10.776941271123736,
              15
            ],
            [
              106.69512933243782,
              10.776971359302454,
              15
            ],
            [
              106.69494556222469,
              10.776770861388956,
              15
            ],
            [
              106.69518367580639,
              10.776560244034055,
              15
            ],
            [
              106.69536744601332,
              10.776760741839285,
              15
            ],
            [
              106.69533342976126,
              10.776790830018003,
              15
            ],
            [
              106.69547125749915,
              10.776941203382075,
              15
            ],
            [
              106.69557330627558,
              10.776850938823658,
              15
            ],
            [
              106.69554267790201,
              10.77681752251226,
              15
            ],
            [
              106.6956447266365,
              10.776727257953844,
              15
            ],
            [
              106.69583094721624,
              10.776930429063855,
              15
            ],
            [
              106.69559283317511,
              10.777141046236986,
              15
            ],
            [
              106.69562101131599,
              10.777171789240592,
              15
            ],
            [
              106.69551896240013,
              10.777262053765622,
              15
            ],
            [
              106.69549078419828,
              10.77723131068411,
              15
            ]
          ]
        ]
      },
      "properties": {
        "id": "1",
        "blockName": "Tầng hầm",
        "height": 3,
        "sourceId": "1",
        "sourceFile": "basement.geojson",
        "componentId": "basement",
        "componentName": "Basement plinth",
        "lodLevel": "LoD3",
        "lod3Category": "LoD3 structural shell",
        "lod3Evidence": "Separate basement, floor slabs, walls, and floor volumes are modeled as individual 3D parts."
      }
    },
    {
      "id": "basement-91",
      "type": "Feature",
      "geometry": {
        "type": "Polygon",
        "coordinates": [
          [
            [
              106.69499658659173,
              10.776725729113922,
              15
            ],
            [
              106.69513265149553,
              10.776605376339694,
              15
            ],
            [
              106.69510202314692,
              10.776571960028296,
              15
            ],
            [
              106.69496595818336,
              10.776692312720915,
              15
            ]
          ]
        ]
      },
      "properties": {
        "id": "91",
        "blockName": "Tầng hầm",
        "height": 3,
        "sourceId": "91",
        "sourceFile": "basement.geojson",
        "componentId": "basement",
        "componentName": "Basement plinth",
        "lodLevel": "LoD3",
        "lod3Category": "LoD3 structural shell",
        "lod3Evidence": "Separate basement, floor slabs, walls, and floor volumes are modeled as individual 3D parts."
      }
    },
    {
      "id": "ground-floor-base-92",
      "type": "Feature",
      "geometry": {
        "type": "Polygon",
        "coordinates": [
          [
            [
              106.69548833491135,
              10.77722863791574,
              18.6
            ],
            [
              106.69525022080083,
              10.777439255270648,
              18.6
            ],
            [
              106.69506645030208,
              10.777238757357148,
              18.6
            ],
            [
              106.69516849917937,
              10.777148492798734,
              18.6
            ],
            [
              106.69519912759006,
              10.777181909107123,
              18.6
            ],
            [
              106.69530117644813,
              10.777091644548708,
              18.6
            ],
            [
              106.69516334871022,
              10.776941271123736,
              18.6
            ],
            [
              106.69512933243782,
              10.776971359302454,
              18.6
            ],
            [
              106.69494556222469,
              10.776770861388956,
              18.6
            ],
            [
              106.69518367580639,
              10.776560244034055,
              18.6
            ],
            [
              106.69536744601332,
              10.776760741839285,
              18.6
            ],
            [
              106.69533342976126,
              10.776790830018003,
              18.6
            ],
            [
              106.69547125749915,
              10.776941203382075,
              18.6
            ],
            [
              106.69557330627558,
              10.776850938823658,
              18.6
            ],
            [
              106.69554267790201,
              10.77681752251226,
              18.6
            ],
            [
              106.6956447266365,
              10.776727257953844,
              18.6
            ],
            [
              106.69582849694541,
              10.776927755759074,
              18.6
            ],
            [
              106.69559038290632,
              10.777138372932203,
              18.6
            ],
            [
              106.69562101131599,
              10.777171789240592,
              18.6
            ],
            [
              106.69551896240013,
              10.777262053765622,
              18.6
            ],
            [
              106.69548833398466,
              10.777228637454222,
              18.6
            ]
          ]
        ]
      },
      "properties": {
        "id": "92",
        "blockName": "Tầng trệt",
        "height": 0.05,
        "sourceId": "92",
        "sourceFile": "ground-floor-base.geojson",
        "componentId": "ground-floor-base",
        "componentName": "Ground floor slab",
        "lodLevel": "LoD3",
        "lod3Category": "LoD3 structural shell",
        "lod3Evidence": "Separate basement, floor slabs, walls, and floor volumes are modeled as individual 3D parts."
      }
    },
    {
      "id": "ground-floor-base-99",
      "type": "Feature",
      "geometry": {
        "type": "Polygon",
        "coordinates": [
          [
            [
              106.69499658659173,
              10.776725729113922,
              18.6
            ],
            [
              106.69513265149553,
              10.776605376339694,
              18.6
            ],
            [
              106.69510202314692,
              10.776571960028296,
              18.6
            ],
            [
              106.69496595818336,
              10.776692312720915,
              18.6
            ]
          ]
        ]
      },
      "properties": {
        "id": "99",
        "blockName": "Tầng trệt",
        "height": 0.05,
        "sourceId": "99",
        "sourceFile": "ground-floor-base.geojson",
        "componentId": "ground-floor-base",
        "componentName": "Ground floor slab",
        "lodLevel": "LoD3",
        "lod3Category": "LoD3 structural shell",
        "lod3Evidence": "Separate basement, floor slabs, walls, and floor volumes are modeled as individual 3D parts."
      }
    },
    {
      "id": "ground-floor-walls-93",
      "type": "Feature",
      "geometry": {
        "type": "Polygon",
        "coordinates": [
          [
            [
              106.69525022080083,
              10.777439255270648,
              18.6
            ],
            [
              106.69506645030208,
              10.777238757357148,
              18.6
            ],
            [
              106.69516849917937,
              10.777148492798734,
              18.6
            ],
            [
              106.69522975600748,
              10.777215325412506,
              18.6
            ],
            [
              106.695365821153,
              10.777094972660533,
              18.6
            ],
            [
              106.6951667366847,
              10.77687776658269,
              18.6
            ],
            [
              106.69513272041941,
              10.776907854761406,
              18.6
            ],
            [
              106.69501020694261,
              10.77677418949777,
              18.6
            ],
            [
              106.69518028810835,
              10.776623748548527,
              18.6
            ],
            [
              106.69530280157834,
              10.776757413764042,
              18.6
            ],
            [
              106.69526878532668,
              10.77678750194276,
              18.6
            ],
            [
              106.69546786987895,
              10.777004707893536,
              18.6
            ],
            [
              106.69560393492931,
              10.776884355141565,
              18.6
            ],
            [
              106.69554267790201,
              10.77681752251226,
              18.6
            ],
            [
              106.6956447266365,
              10.776727257953844,
              18.6
            ],
            [
              106.69582849694541,
              10.776927755759074,
              18.6
            ],
            [
              106.69572644811228,
              10.777018020284103,
              18.6
            ],
            [
              106.69569581972164,
              10.776984603972705,
              18.6
            ],
            [
              106.69532164029714,
              10.777315573734583,
              18.6
            ],
            [
              106.69535226872483,
              10.777348990042972,
              18.6
            ],
            [
              106.69525022080083,
              10.777439255270648,
              18.6
            ]
          ]
        ]
      },
      "properties": {
        "id": "93",
        "blockName": "Tầng một",
        "height": 5,
        "sourceId": "93",
        "sourceFile": "ground-floor-walls.geojson",
        "componentId": "ground-floor-walls",
        "componentName": "Ground floor walls",
        "lodLevel": "LoD3",
        "lod3Category": "LoD3 structural shell",
        "lod3Evidence": "Separate basement, floor slabs, walls, and floor volumes are modeled as individual 3D parts."
      }
    },
    {
      "id": "first-floor-base-117",
      "type": "Feature",
      "geometry": {
        "type": "Polygon",
        "coordinates": [
          [
            [
              106.69548833491135,
              10.77722863791574,
              24.1
            ],
            [
              106.69525022080083,
              10.777439255270648,
              24.1
            ],
            [
              106.69506645030208,
              10.777238757357148,
              24.1
            ],
            [
              106.69516849917937,
              10.777148492798734,
              24.1
            ],
            [
              106.69519912759006,
              10.777181909107123,
              24.1
            ],
            [
              106.69530117644813,
              10.777091644548708,
              24.1
            ],
            [
              106.69516334871022,
              10.776941271123736,
              24.1
            ],
            [
              106.69512933243782,
              10.776971359302454,
              24.1
            ],
            [
              106.69494556222469,
              10.776770861388956,
              24.1
            ],
            [
              106.69518367580639,
              10.776560244034055,
              24.1
            ],
            [
              106.69536744601332,
              10.776760741839285,
              24.1
            ],
            [
              106.69533342976126,
              10.776790830018003,
              24.1
            ],
            [
              106.69547125749915,
              10.776941203382075,
              24.1
            ],
            [
              106.69557330627558,
              10.776850938823658,
              24.1
            ],
            [
              106.69554267790201,
              10.77681752251226,
              24.1
            ],
            [
              106.6956447266365,
              10.776727257953844,
              24.1
            ],
            [
              106.69582849694541,
              10.776927755759074,
              24.1
            ],
            [
              106.69559038290632,
              10.777138372932203,
              24.1
            ],
            [
              106.69548833491135,
              10.77722863791574,
              24.1
            ]
          ]
        ]
      },
      "properties": {
        "id": "117",
        "blockName": "Tầng hai",
        "height": 9,
        "sourceId": "117",
        "sourceFile": "first-floor-base.geojson",
        "componentId": "first-floor-base",
        "componentName": "First floor block",
        "lodLevel": "LoD3",
        "lod3Category": "LoD3 structural shell",
        "lod3Evidence": "Separate basement, floor slabs, walls, and floor volumes are modeled as individual 3D parts."
      }
    }
  ]
}